STARLINK-5602           
1 55743U 23028C   25328.92735552  .00000209  00000+0  25289-4 0  9997
2 55743  69.9978 148.7666 0003030 269.4211  90.6601 14.98338346150347
STARLINK-5601           
1 55744U 23028D   25328.92337762 -.00001307  00000+0 -10181-3 0  9995
2 55744  69.9987 148.7514 0002848 266.5388  93.5445 14.98307580150343
STARLINK-5579           
1 55746U 23028F   25328.76045544  .00000921  00000+0  84976-4 0  9996
2 55746  69.9980 148.9842 0003304 268.5194  91.5587 14.98319686150322
STARLINK-5539           
1 55747U 23028G   25328.91066103  .00000658  00000+0  62971-4 0  9996
2 55747  69.9979 148.7059 0003038 268.1391  91.9420 14.98331156150346
STARLINK-5580           
1 55748U 23028H   25328.90648810  .00000990  00000+0  90763-4 0  9996
2 55748  69.9978 148.6916 0003058 269.6039  90.4770 14.98330658150342
STARLINK-5573           
1 55750U 23028K   25328.90231206  .00000269  00000+0  30342-4 0  9992
2 55750  69.9980 148.6769 0002588 267.4530  92.6333 14.98342059150340
STARLINK-5577           
1 55751U 23028L   25328.91483439  .00000777  00000+0  72880-4 0  9998
2 55751  69.9977 148.7200 0002530 272.6071  87.4798 14.98331787150346
STARLINK-5613           
1 55752U 23028M   25328.94403322 -.00000520  00000+0 -35766-4 0  9995
2 55752  69.9978 148.4197 0002875 276.0380  84.0452 14.98321831150353
STARLINK-5617           
1 55753U 23028N   25328.69383489  .00002485  00000+0  21593-3 0  9991
2 55753  69.9989 149.1552 0003024 266.3142  93.7671 14.98336739150313
STARLINK-5612           
1 55754U 23028P   25328.95239341  .00000870  00000+0  80714-4 0  9995
2 55754  69.9981 148.4505 0002732 264.5186  95.5662 14.98324052150358
STARLINK-5619           
1 55755U 23028Q   25328.94003140  .00000546  00000+0  53515-4 0  9990
2 55755  69.9975 148.4014 0003072 266.6679  93.4128 14.98329752150351
STARLINK-5614           
1 55756U 23028R   25328.93565491  .00003739  00000+0  32091-3 0  9994
2 55756  69.9979 148.3919 0002891 266.6959  93.3869 14.98342541150350
STARLINK-5544           
1 55757U 23028S   25328.88978955  .00000902  00000+0  83395-4 0  9995
2 55757  69.9979 148.6325 0002400 265.7176  94.3709 14.98332935150341
STARLINK-5072           
1 55758U 23028T   25328.88143941  .00000321  00000+0  34672-4 0  9994
2 55758  69.9981 148.6028 0002897 267.9762  92.1065 14.98331850150346
STARLINK-5532           
1 55760U 23028V   25328.93151715  .00007443  00000+0  63159-3 0  9994
2 55760  69.9981 148.3785 0002510 269.6805  90.4067 14.98287245150357
STARLINK-5611           
1 55761U 23028W   25328.84384168  .00000643  00000+0  61680-4 0  9998
2 55761  69.9984 128.9966 0002752 269.9046  90.1798 14.98331817150829
STARLINK-5603           
1 55762U 23028X   25328.76439544 -.00000560  00000+0 -39115-4 0  9997
2 55762  69.9985 129.1183 0002630 269.0768  91.0090 14.98336848150815
