[{"OBJECT_NAME":"STARLINK-5602","OBJECT_ID":"2023-028C","EPOCH":"2025-11-24T22:15:23.516928","MEAN_MOTION":14.98338346,"ECCENTRICITY":0.000303,"INCLINATION":69.9978,"RA_OF_ASC_NODE":148.7666,"ARG_OF_PERICENTER":269.4211,"MEAN_ANOMALY":90.6601,"EPHEMERIS_TYPE":0,"CLASSIFICATION_TYPE":"U","NORAD_CAT_ID":55743,"ELEMENT_SET_NO":999,"REV_AT_EPOCH":15034,"BSTAR":2.5289e-5,"MEAN_MOTION_DOT":2.09e-6,"MEAN_MOTION_DDOT":0},{"OBJECT_NAME":"STARLINK-5601","OBJECT_ID":"2023-028D","EPOCH":"2025-11-24T22:09:39.826368","MEAN_MOTION":14.9830758,"ECCENTRICITY":0.0002848,"INCLINATION":69.9987,"RA_OF_ASC_NODE":148.7514,"ARG_OF_PERICENTER":266.5388,"MEAN_ANOMALY":93.5445,"EPHEMERIS_TYPE":0,"CLASSIFICATION_TYPE":"U","NORAD_CAT_ID":55744,"ELEMENT_SET_NO":999,"REV_AT_EPOCH":15034,"BSTAR":-0.00010181,"MEAN_MOTION_DOT":-1.307e-5,"MEAN_MOTION_DDOT":0},{"OBJECT_NAME":"STARLINK-5579","OBJECT_ID":"2023-028F","EPOCH":"2025-11-24T18:15:03.350016","MEAN_MOTION":14.98319686,"ECCENTRICITY":0.0003304,"INCLINATION":69.998,"RA_OF_ASC_NODE":148.9842,"ARG_OF_PERICENTER":268.5194,"MEAN_ANOMALY":91.5587,"EPHEMERIS_TYPE":0,"CLASSIFICATION_TYPE":"U","NORAD_CAT_ID":55746,"ELEMENT_SET_NO":999,"REV_AT_EPOCH":15032,"BSTAR":8.4976e-5,"MEAN_MOTION_DOT":9.21e-6,"MEAN_MOTION_DDOT":0},{"OBJECT_NAME":"STARLINK-5539","OBJECT_ID":"2023-028G","EPOCH":"2025-11-24T21:51:21.112992","MEAN_MOTION":14.98331156,"ECCENTRICITY":0.0003038,"INCLINATION":69.9979,"RA_OF_ASC_NODE":148.7059,"ARG_OF_PERICENTER":268.1391,"MEAN_ANOMALY":91.942,"EPHEMERIS_TYPE":0,"CLASSIFICATION_TYPE":"U","NORAD_CAT_ID":55747,"ELEMENT_SET_NO":999,"REV_AT_EPOCH":15034,"BSTAR":6.2971e-5,"MEAN_MOTION_DOT":6.58e-6,"MEAN_MOTION_DDOT":0},{"OBJECT_NAME":"STARLINK-5580","OBJECT_ID":"2023-028H","EPOCH":"2025-11-24T21:45:20.571840","MEAN_MOTION":14.98330658,"ECCENTRICITY":0.0003058,"INCLINATION":69.9978,"RA_OF_ASC_NODE":148.6916,"ARG_OF_PERICENTER":269.6039,"MEAN_ANOMALY":90.477,"EPHEMERIS_TYPE":0,"CLASSIFICATION_TYPE":"U","NORAD_CAT_ID":55748,"ELEMENT_SET_NO":999,"REV_AT_EPOCH":15034,"BSTAR":9.0763e-5,"MEAN_MOTION_DOT":9.9e-6,"MEAN_MOTION_DDOT":0},{"OBJECT_NAME":"STARLINK-5573","OBJECT_ID":"2023-028K","EPOCH":"2025-11-24T21:39:19.761984","MEAN_MOTION":14.98342059,"ECCENTRICITY":0.0002588,"INCLINATION":69.998,"RA_OF_ASC_NODE":148.6769,"ARG_OF_PERICENTER":267.453,"MEAN_ANOMALY":92.6333,"EPHEMERIS_TYPE":0,"CLASSIFICATION_TYPE":"U","NORAD_CAT_ID":55750,"ELEMENT_SET_NO":999,"REV_AT_EPOCH":15034,"BSTAR":3.0342e-5,"MEAN_MOTION_DOT":2.69e-6,"MEAN_MOTION_DDOT":0},{"OBJECT_NAME":"STARLINK-5577","OBJECT_ID":"2023-028L","EPOCH":"2025-11-24T21:57:21.691296","MEAN_MOTION":14.98331787,"ECCENTRICITY":0.000253,"INCLINATION":69.9977,"RA_OF_ASC_NODE":148.72,"ARG_OF_PERICENTER":272.6071,"MEAN_ANOMALY":87.4798,"EPHEMERIS_TYPE":0,"CLASSIFICATION_TYPE":"U","NORAD_CAT_ID":55751,"ELEMENT_SET_NO":999,"REV_AT_EPOCH":15034,"BSTAR":7.288e-5,"MEAN_MOTION_DOT":7.77e-6,"MEAN_MOTION_DDOT":0},{"OBJECT_NAME":"STARLINK-5613","OBJECT_ID":"2023-028M","EPOCH":"2025-11-24T22:39:24.470208","MEAN_MOTION":14.98321831,"ECCENTRICITY":0.0002875,"INCLINATION":69.9978,"RA_OF_ASC_NODE":148.4197,"ARG_OF_PERICENTER":276.038,"MEAN_ANOMALY":84.0452,"EPHEMERIS_TYPE":0,"CLASSIFICATION_TYPE":"U","NORAD_CAT_ID":55752,"ELEMENT_SET_NO":999,"REV_AT_EPOCH":15035,"BSTAR":-3.5766e-5,"MEAN_MOTION_DOT":-5.2e-6,"MEAN_MOTION_DDOT":0},{"OBJECT_NAME":"STARLINK-5617","OBJECT_ID":"2023-028N","EPOCH":"2025-11-24T16:39:07.334496","MEAN_MOTION":14.98336739,"ECCENTRICITY":0.00030244,"INCLINATION":69.9989,"RA_OF_ASC_NODE":149.1552,"ARG_OF_PERICENTER":266.3142,"MEAN_ANOMALY":93.7671,"EPHEMERIS_TYPE":0,"CLASSIFICATION_TYPE":"U","NORAD_CAT_ID":55753,"ELEMENT_SET_NO":999,"REV_AT_EPOCH":15031,"BSTAR":0.00021593264,"MEAN_MOTION_DOT":2.485e-5,"MEAN_MOTION_DDOT":0},{"OBJECT_NAME":"STARLINK-5612","OBJECT_ID":"2023-028P","EPOCH":"2025-11-24T22:51:26.790624","MEAN_MOTION":14.98324052,"ECCENTRICITY":0.0002732,"INCLINATION":69.9981,"RA_OF_ASC_NODE":148.4505,"ARG_OF_PERICENTER":264.5186,"MEAN_ANOMALY":95.5662,"EPHEMERIS_TYPE":0,"CLASSIFICATION_TYPE":"U","NORAD_CAT_ID":55754,"ELEMENT_SET_NO":999,"REV_AT_EPOCH":15035,"BSTAR":8.0714e-5,"MEAN_MOTION_DOT":8.7e-6,"MEAN_MOTION_DDOT":0},{"OBJECT_NAME":"STARLINK-5619","OBJECT_ID":"2023-028Q","EPOCH":"2025-11-24T22:33:38.712960","MEAN_MOTION":14.98329752,"ECCENTRICITY":0.0003072,"INCLINATION":69.9975,"RA_OF_ASC_NODE":148.4014,"ARG_OF_PERICENTER":266.6679,"MEAN_ANOMALY":93.4128,"EPHEMERIS_TYPE":0,"CLASSIFICATION_TYPE":"U","NORAD_CAT_ID":55755,"ELEMENT_SET_NO":999,"REV_AT_EPOCH":15035,"BSTAR":5.3515e-5,"MEAN_MOTION_DOT":5.46e-6,"MEAN_MOTION_DDOT":0},{"OBJECT_NAME":"STARLINK-5614","OBJECT_ID":"2023-028R","EPOCH":"2025-11-24T22:27:20.584224","MEAN_MOTION":14.98342541,"ECCENTRICITY":0.0002891,"INCLINATION":69.9979,"RA_OF_ASC_NODE":148.3919,"ARG_OF_PERICENTER":266.6959,"MEAN_ANOMALY":93.3869,"EPHEMERIS_TYPE":0,"CLASSIFICATION_TYPE":"U","NORAD_CAT_ID":55756,"ELEMENT_SET_NO":999,"REV_AT_EPOCH":15035,"BSTAR":0.00032091,"MEAN_MOTION_DOT":3.739e-5,"MEAN_MOTION_DDOT":0},{"OBJECT_NAME":"STARLINK-5544","OBJECT_ID":"2023-028S","EPOCH":"2025-11-24T21:21:17.817120","MEAN_MOTION":14.98332935,"ECCENTRICITY":0.00024,"INCLINATION":69.9979,"RA_OF_ASC_NODE":148.6325,"ARG_OF_PERICENTER":265.7176,"MEAN_ANOMALY":94.3709,"EPHEMERIS_TYPE":0,"CLASSIFICATION_TYPE":"U","NORAD_CAT_ID":55757,"ELEMENT_SET_NO":999,"REV_AT_EPOCH":15034,"BSTAR":8.3395e-5,"MEAN_MOTION_DOT":9.02e-6,"MEAN_MOTION_DDOT":0},{"OBJECT_NAME":"STARLINK-5072","OBJECT_ID":"2023-028T","EPOCH":"2025-11-24T21:09:16.365024","MEAN_MOTION":14.9833185,"ECCENTRICITY":0.0002897,"INCLINATION":69.9981,"RA_OF_ASC_NODE":148.6028,"ARG_OF_PERICENTER":267.9762,"MEAN_ANOMALY":92.1065,"EPHEMERIS_TYPE":0,"CLASSIFICATION_TYPE":"U","NORAD_CAT_ID":55758,"ELEMENT_SET_NO":999,"REV_AT_EPOCH":15034,"BSTAR":3.4672e-5,"MEAN_MOTION_DOT":3.21e-6,"MEAN_MOTION_DDOT":0},{"OBJECT_NAME":"STARLINK-5532","OBJECT_ID":"2023-028V","EPOCH":"2025-11-24T22:21:23.081760","MEAN_MOTION":14.98287245,"ECCENTRICITY":0.000251,"INCLINATION":69.9981,"RA_OF_ASC_NODE":148.3785,"ARG_OF_PERICENTER":269.6805,"MEAN_ANOMALY":90.4067,"EPHEMERIS_TYPE":0,"CLASSIFICATION_TYPE":"U","NORAD_CAT_ID":55760,"ELEMENT_SET_NO":999,"REV_AT_EPOCH":15035,"BSTAR":0.00063159,"MEAN_MOTION_DOT":7.443e-5,"MEAN_MOTION_DDOT":0},{"OBJECT_NAME":"STARLINK-5611","OBJECT_ID":"2023-028W","EPOCH":"2025-11-24T20:15:07.921152","MEAN_MOTION":14.98331817,"ECCENTRICITY":0.0002752,"INCLINATION":69.9984,"RA_OF_ASC_NODE":128.9966,"ARG_OF_PERICENTER":269.9046,"MEAN_ANOMALY":90.1798,"EPHEMERIS_TYPE":0,"CLASSIFICATION_TYPE":"U","NORAD_CAT_ID":55761,"ELEMENT_SET_NO":999,"REV_AT_EPOCH":15082,"BSTAR":6.168e-5,"MEAN_MOTION_DOT":6.43e-6,"MEAN_MOTION_DDOT":0},{"OBJECT_NAME":"STARLINK-5603","OBJECT_ID":"2023-028X","EPOCH":"2025-11-24T18:20:43.766016","MEAN_MOTION":14.98336848,"ECCENTRICITY":0.000263,"INCLINATION":69.9985,"RA_OF_ASC_NODE":129.1183,"ARG_OF_PERICENTER":269.0768,"MEAN_ANOMALY":91.009,"EPHEMERIS_TYPE":0,"CLASSIFICATION_TYPE":"U","NORAD_CAT_ID":55762,"ELEMENT_SET_NO":999,"REV_AT_EPOCH":15081,"BSTAR":-3.9115e-5,"MEAN_MOTION_DOT":-5.6e-6,"MEAN_MOTION_DDOT":0}]
